OBJECT_NAME,OBJECT_ID,EPOCH,MEAN_MOTION,ECCENTRICITY,INCLINATION,RA_OF_ASC_NODE,ARG_OF_PERICENTER,MEAN_ANOMALY,EPHEMERIS_TYPE,CLASSIFICATION_TYPE,NORAD_CAT_ID,ELEMENT_SET_NO,REV_AT_EPOCH,BSTAR,MEAN_MOTION_DOT,MEAN_MOTION_DDOT
ONEWEB-0275,2021-060AC,2026-06-19T15:52:19.470144,13.16594409,.00019543,87.9095,228.2844,96.5271,263.6082,0,U,48993,999,23988,-.31439187E-4,.1E-7,0
ONEWEB-0276,2021-060AD,2026-06-19T16:40:11.675712,13.16594534,.00019453,87.9097,228.2771,94.4593,265.6760,0,U,48994,999,23990,.28128314E-3,.12E-5,0
ONEWEB-0277,2021-060AE,2026-06-19T16:58:26.957280,13.16593915,.00018899,87.9091,228.2834,101.1702,258.9641,0,U,48995,999,23989,.13762059E-3,.65E-6,0
ONEWEB-0278,2021-060AF,2026-06-19T16:44:44.187360,13.16592851,.00022442,87.9098,228.2758,98.4237,261.7149,0,U,48996,999,24002,.27540373E-3,.118E-5,0
ONEWEB-0279,2021-060AG,2026-06-19T16:56:09.393792,13.16594915,.00017813,87.9098,228.2722,98.2676,261.8657,0,U,48997,999,23995,.1057766E-3,.53E-6,0
ONEWEB-0280,2021-060AH,2026-06-19T15:28:22.505088,13.16593832,.00021917,87.9095,228.2887,106.3544,253.7829,0,U,48998,999,23988,-.18352147E-3,-.57E-6,0
ONEWEB-0281,2021-060AJ,2026-06-19T21:04:39.883296,13.16594986,.00021293,87.9098,228.2375,97.3786,262.7587,0,U,48999,999,23998,-.23832324E-3,-.78E-6,0
ONEWEB-0282,2021-060AK,2026-06-19T16:19:39.683424,13.16593030,.00019791,87.9093,228.2851,101.6177,258.5176,0,U,49000,999,23993,.26993985E-3,.116E-5,0
ONEWEB-0283,2021-060AL,2026-06-19T16:03:42.896736,13.16594305,.00019041,87.9093,228.2867,98.1862,261.9485,0,U,49001,999,23994,-.25425905E-4,.3E-7,0
ONEWEB-0284,2021-060AM,2026-06-19T15:54:36.135936,13.16594698,.00022968,87.9094,228.2814,103.9582,256.1804,0,U,49002,999,23992,-.57747353E-4,-.9E-7,0
ONEWEB-0285,2021-075A,2026-06-19T11:59:47.350176,13.12443263,.00017898,87.8946,350.2019,93.3551,266.7782,0,U,49075,999,23551,.82695293E-3,.31E-5,0
ONEWEB-0286,2021-075B,2026-06-19T13:23:45.741984,13.12444196,.00019841,87.8937,350.2069,86.4107,273.7248,0,U,49076,999,23487,.11673321E-2,.433E-5,0
ONEWEB-0287,2021-075C,2026-06-19T14:19:06.893184,13.17649664,.00022631,87.9132,5.3864,84.3945,275.7445,0,U,49077,999,23394,.24840544E-3,.109E-5,0
ONEWEB-0288,2021-075D,2026-06-19T21:58:42.096000,13.12444065,.00020364,87.8947,350.1123,91.8282,268.3080,0,U,49078,999,23554,-.11042976E-2,-.385E-5,0
ONEWEB-0289,2021-075E,2026-06-19T13:25:27.374304,13.17650214,.00019264,87.9138,5.4107,100.6612,259.4736,0,U,49079,999,23451,-.4159113E-4,-.3E-7,0
ONEWEB-0290,2021-075F,2026-06-19T07:18:44.833248,13.17648645,.00018675,87.9141,5.4334,104.6202,255.5137,0,U,49080,999,23389,-.25871828E-4,.3E-7,0
ONEWEB-0291,2021-075G,2026-06-19T14:14:16.056960,13.17648586,.00022138,87.9133,5.3834,92.3225,267.8160,0,U,49081,999,23392,-.12827108E-4,.8E-7,0
ONEWEB-0293,2021-075H,2026-06-19T05:43:57.917856,13.17648742,.00019017,87.9131,5.4572,92.6733,267.4616,0,U,49082,999,23390,-.90566021E-4,-.22E-6,0
ONEWEB-0294,2021-075J,2026-06-19T22:08:27.506112,13.12445475,.00018991,87.8948,350.1147,102.1535,257.9807,0,U,49083,999,23493,-.58219177E-3,-.197E-5,0
ONEWEB-0295,2021-075K,2026-06-19T05:42:45.334944,13.17648859,.00021796,87.9130,5.4614,88.7877,271.3504,0,U,49084,999,23386,.33088846E-4,.26E-6,0
ONEWEB-0296,2021-075L,2026-06-19T21:39:11.178144,13.12441478,.00021391,87.8953,350.1262,92.9832,267.1541,0,U,49085,999,23493,-.86096211E-3,-.297E-5,0
ONEWEB-0297,2021-075M,2026-06-19T22:23:05.925408,13.12445367,.00019088,87.8939,350.1308,90.4423,269.6924,0,U,49086,999,23554,.34650998E-3,.137E-5,0
ONEWEB-0298,2021-075N,2026-06-19T22:13:09.859584,13.17648606,.00018327,87.9132,5.3225,84.4282,275.7058,0,U,49087,999,23398,-.28909207E-4,.2E-7,0
ONEWEB-0299,2021-075P,2026-06-19T05:51:15.636672,13.17649485,.00020374,87.9141,5.4387,86.0696,274.0668,0,U,49088,999,23387,-.23273621E-3,-.77E-6,0
ONEWEB-0300,2021-075Q,2026-06-19T22:12:06.587136,13.12443891,.00017521,87.8950,350.1119,79.3623,280.7703,0,U,49089,999,23556,-.100709E-2,-.35E-5,0
ONEWEB-0301,2021-075R,2026-06-19T05:20:54.022272,13.12441902,.00016676,87.8948,350.2499,81.4336,278.6981,0,U,49090,999,23483,-.12527096E-2,-.438E-5,0
ONEWEB-0302,2021-075S,2026-06-19T21:29:25.888992,13.12442882,.00019658,87.8950,350.1278,99.6035,260.5316,0,U,49091,999,23490,-.44602806E-3,-.148E-5,0
ONEWEB-0304,2021-075T,2026-06-19T14:21:32.886720,13.17649196,.00020014,87.9133,5.3905,87.8432,272.2929,0,U,49092,999,23389,-.5126987E-5,.11E-6,0
ONEWEB-0305,2021-075U,2026-06-19T14:11:49.911360,13.17648604,.00022253,87.9140,5.3764,85.5172,274.6213,0,U,49093,999,23392,-.1825729E-5,.12E-6,0
ONEWEB-0308,2021-075V,2026-06-19T21:19:40.358784,13.12443088,.00017963,87.8950,350.1211,92.3905,267.7430,0,U,49094,999,23491,.31272285E-3,.125E-5,0
