ONEWEB-0275             
1 48993U 21060AC  26170.66133646  .00000001  00000+0 -31439-4 0  9998
2 48993  87.9095 228.2844 0001954  96.5271 263.6082 13.16594409239881
ONEWEB-0276             
1 48994U 21060AD  26170.69457958  .00000120  00000+0  28128-3 0  9998
2 48994  87.9097 228.2771 0001945  94.4593 265.6760 13.16594534239904
ONEWEB-0277             
1 48995U 21060AE  26170.70725645  .00000065  00000+0  13762-3 0  9998
2 48995  87.9091 228.2834 0001889 101.1702 258.9641 13.16593915239897
ONEWEB-0278             
1 48996U 21060AF  26170.69773365  .00000118  00000+0  27540-3 0  9997
2 48996  87.9098 228.2758 0002244  98.4237 261.7149 13.16592851240027
ONEWEB-0279             
1 48997U 21060AG  26170.70566428  .00000053  00000+0  10578-3 0  9991
2 48997  87.9098 228.2722 0001781  98.2676 261.8657 13.16594915239957
ONEWEB-0280             
1 48998U 21060AH  26170.64470492 -.00000057  00000+0 -18352-3 0  9994
2 48998  87.9095 228.2887 0002191 106.3544 253.7829 13.16593832239888
ONEWEB-0281             
1 48999U 21060AJ  26170.87823939 -.00000078  00000+0 -23832-3 0  9990
2 48999  87.9098 228.2375 0002129  97.3786 262.7587 13.16594986239985
ONEWEB-0282             
1 49000U 21060AK  26170.68032041  .00000116  00000+0  26994-3 0  9992
2 49000  87.9093 228.2851 0001979 101.6177 258.5176 13.16593030239939
ONEWEB-0283             
1 49001U 21060AL  26170.66924649  .00000003  00000+0 -25426-4 0  9991
2 49001  87.9093 228.2867 0001904  98.1862 261.9485 13.16594305239944
ONEWEB-0284             
1 49002U 21060AM  26170.66291824 -.00000009  00000+0 -57747-4 0  9992
2 49002  87.9094 228.2814 0002296 103.9582 256.1804 13.16594698239921
ONEWEB-0285             
1 49075U 21075A   26170.49985359  .00000310  00000+0  82695-3 0  9994
2 49075  87.8946 350.2019 0001789  93.3551 266.7782 13.12443263235513
ONEWEB-0286             
1 49076U 21075B   26170.55816831  .00000433  00000+0  11673-2 0  9993
2 49076  87.8937 350.2069 0001984  86.4107 273.7248 13.12444196234875
ONEWEB-0287             
1 49077U 21075C   26170.59660756  .00000109  00000+0  24841-3 0  9993
2 49077  87.9132   5.3864 0002263  84.3945 275.7445 13.17649664233943
ONEWEB-0288             
1 49078U 21075D   26170.91576500 -.00000385  00000+0 -11043-2 0  9990
2 49078  87.8947 350.1123 0002036  91.8282 268.3080 13.12444065235545
ONEWEB-0289             
1 49079U 21075E   26170.55934461 -.00000003  00000+0 -41591-4 0  9995
2 49079  87.9138   5.4107 0001926 100.6612 259.4736 13.17650214234519
ONEWEB-0290             
1 49080U 21075F   26170.30468557  .00000003  00000+0 -25872-4 0  9991
2 49080  87.9141   5.4334 0001867 104.6202 255.5137 13.17648645233897
ONEWEB-0291             
1 49081U 21075G   26170.59324140  .00000008  00000+0 -12827-4 0  9993
2 49081  87.9133   5.3834 0002213  92.3225 267.8160 13.17648586233927
ONEWEB-0293             
1 49082U 21075H   26170.23886479 -.00000022  00000+0 -90566-4 0  9996
2 49082  87.9131   5.4572 0001901  92.6733 267.4616 13.17648742233900
ONEWEB-0294             
1 49083U 21075J   26170.92254058 -.00000197  00000+0 -58219-3 0  9996
2 49083  87.8948 350.1147 0001899 102.1535 257.9807 13.12445475234930
ONEWEB-0295             
1 49084U 21075K   26170.23802471  .00000026  00000+0  33089-4 0  9997
2 49084  87.9130   5.4614 0002179  88.7877 271.3504 13.17648859233865
ONEWEB-0296             
1 49085U 21075L   26170.90221271 -.00000297  00000+0 -86096-3 0  9992
2 49085  87.8953 350.1262 0002139  92.9832 267.1541 13.12441478234937
ONEWEB-0297             
1 49086U 21075M   26170.93270747  .00000137  00000+0  34651-3 0  9999
2 49086  87.8939 350.1308 0001908  90.4423 269.6924 13.12445367235546
ONEWEB-0298             
1 49087U 21075N   26170.92580856  .00000002  00000+0 -28909-4 0  9996
2 49087  87.9132   5.3225 0001832  84.4282 275.7058 13.17648606233980
ONEWEB-0299             
1 49088U 21075P   26170.24393098 -.00000077  00000+0 -23274-3 0  9994
2 49088  87.9141   5.4387 0002037  86.0696 274.0668 13.17649485233879
ONEWEB-0300             
1 49089U 21075Q   26170.92507624 -.00000350  00000+0 -10071-2 0  9996
2 49089  87.8950 350.1119 0001752  79.3623 280.7703 13.12443891235568
ONEWEB-0301             
1 49090U 21075R   26170.22284748 -.00000438  00000+0 -12527-2 0  9995
2 49090  87.8948 350.2499 0001667  81.4336 278.6981 13.12441902234833
ONEWEB-0302             
1 49091U 21075S   26170.89543853 -.00000148  00000+0 -44603-3 0  9993
2 49091  87.8950 350.1278 0001965  99.6035 260.5316 13.12442882234907
ONEWEB-0304             
1 49092U 21075T   26170.59829730  .00000011  00000+0 -51270-5 0  9990
2 49092  87.9133   5.3905 0002001  87.8432 272.2929 13.17649196233899
ONEWEB-0305             
1 49093U 21075U   26170.59154990  .00000012  00000+0 -18257-5 0  9999
2 49093  87.9140   5.3764 0002225  85.5172 274.6213 13.17648604233924
ONEWEB-0308             
1 49094U 21075V   26170.88866156  .00000125  00000+0  31272-3 0  9990
2 49094  87.8950 350.1211 0001796  92.3905 267.7430 13.12443088234911
